{"type": "FeatureCollection", "features": [ {"type": "Feature", "properties": {"norad_id": 66587, "name": "CZ-3B R/B", "group": "last-30-days", "lat": 30.1623448925047, "lon": -161.89359841844907, "alt_km": 38436.88002381968, "timestamp": "2025-12-09T11:33:53.575957+00:00", "meta": {"OBJECT_NAME": "CZ-3B R/B", "OBJECT_ID": "2025-269B", "EPOCH": "2025-12-07T20:37:07.872096", "MEAN_MOTION": 2.02777724, "ECCENTRICITY": 0.75198691, "INCLINATION": 51.3451, "RA_OF_ASC_NODE": 170.7737, "ARG_OF_PERICENTER": 227.8445, "MEAN_ANOMALY": 38.1645, "EPHEMERIS_TYPE": 0, "CLASSIFICATION_TYPE": "U", "NORAD_CAT_ID": 66587, "ELEMENT_SET_NO": 999, "REV_AT_EPOCH": 35, "BSTAR": 0.0012817032, "MEAN_MOTION_DOT": 0.00047793, "MEAN_MOTION_DDOT": -4.8519e-08}, "tle": {"line1": "1 66587U 25269B   25341.85911889  .00047793 -48519-7  12817-2 0  9996", "line2": "2 66587  51.3451 170.7737 7519869 227.8445  38.1645  2.02777724   355"}}, "geometry": {"type": "Point", "coordinates": [-161.89359841844907, 30.1623448925047]}}, {"type": "Feature", "properties": {"norad_id": 66588, "name": "STARLINK-36076", "group": "last-30-days", "lat": 8.102983026921727, "lon": 23.030797099424948, "alt_km": 398.2423722392923, "timestamp": "2025-12-09T11:33:53.575972+00:00", "meta": {"OBJECT_NAME": "STARLINK-36076", "OBJECT_ID": "2025-270A", "EPOCH": "2025-12-09T04:00:01.998720", "MEAN_MOTION": 15.57365874, "ECCENTRICITY": 0.0001217, "INCLINATION": 42.9992, "RA_OF_ASC_NODE": 213.6805, "ARG_OF_PERICENTER": 269.0125, "MEAN_ANOMALY": 290.5823, "EPHEMERIS_TYPE": 0, "CLASSIFICATION_TYPE": "U", "NORAD_CAT_ID": 66588, "ELEMENT_SET_NO": 999, "REV_AT_EPOCH": 382, "BSTAR": -0.029763, "MEAN_MOTION_DOT": -0.01966385, "MEAN_MOTION_DDOT": 0}, "tle": {"line1": "1 66588U 25270A   25343.16668980 -.01966385  00000+0 -29763-1 0  9997", "line2": "2 66588  42.9992 213.6805 0001217 269.0125 290.5823 15.57365874  3824"}}, "geometry": {"type": "Point", "coordinates": [23.030797099424948, 8.102983026921727]}}, {"type": "Feature", "properties": {"norad_id": 66589, "name": "STARLINK-35447", "group": "last-30-days", "lat": 5.510567017349894, "lon": 25.867156861248105, "alt_km": 398.5122429581952, "timestamp": "2025-12-09T11:33:53.575983+00:00", "meta": {"OBJECT_NAME": "STARLINK-35447", "OBJECT_ID": "2025-270B", "EPOCH": "2025-12-09T04:00:01.998720", "MEAN_MOTION": 15.57368631, "ECCENTRICITY": 0.0001135, "INCLINATION": 42.9994, "RA_OF_ASC_NODE": 213.6708, "ARG_OF_PERICENTER": 267.9234, "MEAN_ANOMALY": 295.5013, "EPHEMERIS_TYPE": 0, "CLASSIFICATION_TYPE": "U", "NORAD_CAT_ID": 66589, "ELEMENT_SET_NO": 999, "REV_AT_EPOCH": 393, "BSTAR": -0.029773, "MEAN_MOTION_DOT": -0.01967113, "MEAN_MOTION_DDOT": 0}, "tle": {"line1": "1 66589U 25270B   25343.16668980 -.01967113  00000+0 -29773-1 0  9999", "line2": "2 66589  42.9994 213.6708 0001135 267.9234 295.5013 15.57368631  3938"}}, "geometry": {"type": "Point", "coordinates": [25.867156861248105, 5.510567017349894]}}, {"type": "Feature", "properties": {"norad_id": 66590, "name": "STARLINK-35429", "group": "last-30-days", "lat": 6.80853338180927, "lon": 24.453226461850655, "alt_km": 398.4359236506689, "timestamp": "2025-12-09T11:33:53.575992+00:00", "meta": {"OBJECT_NAME": "STARLINK-35429", "OBJECT_ID": "2025-270C", "EPOCH": "2025-12-09T04:00:01.998720", "MEAN_MOTION": 15.57367514, "ECCENTRICITY": 0.000113, "INCLINATION": 42.9993, "RA_OF_ASC_NODE": 213.6757, "ARG_OF_PERICENTER": 272.2131, "MEAN_ANOMALY": 289.2952, "EPHEMERIS_TYPE": 0, "CLASSIFICATION_TYPE": "U", "NORAD_CAT_ID": 66590, "ELEMENT_SET_NO": 999, "REV_AT_EPOCH": 393, "BSTAR": -0.029737, "MEAN_MOTION_DOT": -0.01964916, "MEAN_MOTION_DDOT": 0}, "tle": {"line1": "1 66590U 25270C   25343.16668980 -.01964916  00000+0 -29737-1 0  9999", "line2": "2 66590  42.9993 213.6757 0001130 272.2131 289.2952 15.57367514  3934"}}, "geometry": {"type": "Point", "coordinates": [24.453226461850655, 6.80853338180927]}}, {"type": "Feature", "properties": {"norad_id": 66591, "name": "STARLINK-36058", "group": "last-30-days", "lat": 4.2085714004374974, "lon": 27.275810692984553, "alt_km": 398.6755933458171, "timestamp": "2025-12-09T11:33:53.576002+00:00", "meta": {"OBJECT_NAME": "STARLINK-36058", "OBJECT_ID": "2025-270D", "EPOCH": "2025-12-09T04:00:01.998720", "MEAN_MOTION": 15.573668, "ECCENTRICITY": 0.0001238, "INCLINATION": 42.9994, "RA_OF_ASC_NODE": 213.6661, "ARG_OF_PERICENTER": 267.8708, "MEAN_ANOMALY": 297.4749, "EPHEMERIS_TYPE": 0, "CLASSIFICATION_TYPE": "U", "NORAD_CAT_ID": 66591, "ELEMENT_SET_NO": 999, "REV_AT_EPOCH": 382, "BSTAR": -0.029787, "MEAN_MOTION_DOT": -0.01967867, "MEAN_MOTION_DDOT": 0}, "tle": {"line1": "1 66591U 25270D   25343.16668980 -.01967867  00000+0 -29787-1 0  9993", "line2": "2 66591  42.9994 213.6661 0001238 267.8708 297.4749 15.57366800  3829"}}, "geometry": {"type": "Point", "coordinates": [27.275810692984553, 4.2085714004374974]}}, {"type": "Feature", "properties": {"norad_id": 66592, "name": "STARLINK-36066", "group": "last-30-days", "lat": 2.905179441277626, "lon": 28.67858035335948, "alt_km": 398.7947704864391, "timestamp": "2025-12-09T11:33:53.576012+00:00", "meta": {"OBJECT_NAME": "STARLINK-36066", "OBJECT_ID": "2025-270E", "EPOCH": "2025-12-09T04:00:01.998720", "MEAN_MOTION": 15.57366969, "ECCENTRICITY": 0.0001177, "INCLINATION": 42.9993, "RA_OF_ASC_NODE": 213.6615, "ARG_OF_PERICENTER": 267.1635, "MEAN_ANOMALY": 300.0953, "EPHEMERIS_TYPE": 0, "CLASSIFICATION_TYPE": "U", "NORAD_CAT_ID": 66592, "ELEMENT_SET_NO": 999, "REV_AT_EPOCH": 372, "BSTAR": -0.029719, "MEAN_MOTION_DOT": -0.01963867, "MEAN_MOTION_DDOT": 0}, "tle": {"line1": "1 66592U 25270E   25343.16668980 -.01963867  00000+0 -29719-1 0  9995", "line2": "2 66592  42.9993 213.6615 0001177 267.1635 300.0953 15.57366969  3725"}}, "geometry": {"type": "Point", "coordinates": [28.67858035335948, 2.905179441277626]}}, {"type": "Feature", "properties": {"norad_id": 66593, "name": "STARLINK-36031", "group": "last-30-days", "lat": 1.5988723054550096, "lon": 30.078883857253526, "alt_km": 398.8036156432945, "timestamp": "2025-12-09T11:33:53.576024+00:00", "meta": {"OBJECT_NAME": "STARLINK-36031", "OBJECT_ID": "2025-270F", "EPOCH": "2025-12-09T04:00:01.998720", "MEAN_MOTION": 15.57367788, "ECCENTRICITY": 0.0001153, "INCLINATION": 42.9993, "RA_OF_ASC_NODE": 213.6564, "ARG_OF_PERICENTER": 259.7996, "MEAN_ANOMALY": 309.377, "EPHEMERIS_TYPE": 0, "CLASSIFICATION_TYPE": "U", "NORAD_CAT_ID": 66593, "ELEMENT_SET_NO": 999, "REV_AT_EPOCH": 382, "BSTAR": -0.029777, "MEAN_MOTION_DOT": -0.01967292, "MEAN_MOTION_DDOT": 0}, "tle": {"line1": "1 66593U 25270F   25343.16668980 -.01967292  00000+0 -29777-1 0  9996", "line2": "2 66593  42.9993 213.6564 0001153 259.7996 309.3770 15.57367788  3820"}}, "geometry": {"type": "Point", "coordinates": [30.078883857253526, 1.5988723054550096]}}, {"type": "Feature", "properties": {"norad_id": 66594, "name": "STARLINK-36032", "group": "last-30-days", "lat": 0.29158964724986225, "lon": 31.47801573107117, "alt_km": 399.07024486047703, "timestamp": "2025-12-09T11:33:53.576034+00:00", "meta": {"OBJECT_NAME": "STARLINK-36032", "OBJECT_ID": "2025-270G", "EPOCH": "2025-12-09T04:00:01.998720", "MEAN_MOTION": 15.57364599, "ECCENTRICITY": 0.0001114, "INCLINATION": 42.9993, "RA_OF_ASC_NODE": 213.6519, "ARG_OF_PERICENTER": 266.6109, "MEAN_ANOMALY": 304.4839, "EPHEMERIS_TYPE": 0, "CLASSIFICATION_TYPE": "U", "NORAD_CAT_ID": 66594, "ELEMENT_SET_NO": 999, "REV_AT_EPOCH": 356, "BSTAR": -0.029676, "MEAN_MOTION_DOT": -0.01961217, "MEAN_MOTION_DDOT": 0}, "tle": {"line1": "1 66594U 25270G   25343.16668980 -.01961217  00000+0 -29676-1 0  9996", "line2": "2 66594  42.9993 213.6519 0001114 266.6109 304.4839 15.57364599  3561"}}, "geometry": {"type": "Point", "coordinates": [31.47801573107117, 0.29158964724986225]}}, {"type": "Feature", "properties": {"norad_id": 66595, "name": "STARLINK-35711", "group": "last-30-days", "lat": -1.01588456756754, "lon": 32.875828232306304, "alt_km": 399.1838272815048, "timestamp": "2025-12-09T11:33:53.576048+00:00", "meta": {"OBJECT_NAME": "STARLINK-35711", "OBJECT_ID": "2025-270H", "EPOCH": "2025-12-09T04:00:01.998720", "MEAN_MOTION": 15.57370902, "ECCENTRICITY": 0.0001176, "INCLINATION": 42.9993, "RA_OF_ASC_NODE": 213.6464, "ARG_OF_PERICENTER": 265.5127, "MEAN_ANOMALY": 307.4967, "EPHEMERIS_TYPE": 0, "CLASSIFICATION_TYPE": "U", "NORAD_CAT_ID": 66595, "ELEMENT_SET_NO": 999, "REV_AT_EPOCH": 393, "BSTAR": -0.029795, "MEAN_MOTION_DOT": -0.01968574, "MEAN_MOTION_DDOT": 0}, "tle": {"line1": "1 66595U 25270H   25343.16668980 -.01968574  00000+0 -29795-1 0  9992", "line2": "2 66595  42.9993 213.6464 0001176 265.5127 307.4967 15.57370902  3938"}}, "geometry": {"type": "Point", "coordinates": [32.875828232306304, -1.01588456756754]}}, {"type": "Feature", "properties": {"norad_id": 66596, "name": "STARLINK-35811", "group": "last-30-days", "lat": -2.3233524899207088, "lon": 34.2764469049613, "alt_km": 399.3427357786268, "timestamp": "2025-12-09T11:33:53.576058+00:00", "meta": {"OBJECT_NAME": "STARLINK-35811", "OBJECT_ID": "2025-270J", "EPOCH": "2025-12-09T04:00:01.998720", "MEAN_MOTION": 15.57368341, "ECCENTRICITY": 0.0001126, "INCLINATION": 42.9992, "RA_OF_ASC_NODE": 213.6419, "ARG_OF_PERICENTER": 266.3759, "MEAN_ANOMALY": 308.5541, "EPHEMERIS_TYPE": 0, "CLASSIFICATION_TYPE": "U", "NORAD_CAT_ID": 66596, "ELEMENT_SET_NO": 999, "REV_AT_EPOCH": 393, "BSTAR": -0.02978, "MEAN_MOTION_DOT": -0.0196751, "MEAN_MOTION_DDOT": 0}, "tle": {"line1": "1 66596U 25270J   25343.16668980 -.01967510  00000+0 -29780-1 0  9996", "line2": "2 66596  42.9992 213.6419 0001126 266.3759 308.5541 15.57368341  3937"}}, "geometry": {"type": "Point", "coordinates": [34.2764469049613, -2.3233524899207088]}}]}